IRIDIUM 22 [-]          
1 24907U 97043E   23294.46040598  .00000697  00000+0  23831-3 0  9992
2 24907  86.4019   7.3837 0002222  92.1080 268.0371 14.34957067370023
DUMMY MASS 1 [-]        
1 24925U 97048A   23294.81118996  .00000878  00000+0  97526-4 0  9998
2 24925  86.3357  54.5362 0008843 118.3007 241.9110 14.85886201415353
DUMMY MASS 2 [-]        
1 24926U 97048B   23294.80913538  .00000887  00000+0  99202-4 0  9996
2 24926  86.3354  56.0386 0009423 127.6755 232.5325 14.85647280415145
IRIDIUM 29 [-]          
1 24944U 97051A   23294.81804690  .00000553  00000+0  18605-3 0  9996
2 24944  86.3998  37.1997 0002368  90.5844 269.5624 14.35413595366541
IRIDIUM 28 [-]          
1 24948U 97051E   23294.56155228  .00000788  00000+0  26266-3 0  9990
2 24948  86.4008  35.1713 0001717  94.0717 266.0676 14.36351085367093
